{"type":"FeatureCollection","features":[{"type":"Feature","geometry":{"type":"Polygon","coordinates":[[[-123.920055466,43.051753331],[-123.920099054,43.0517626640001],[-123.920149268,43.051774032],[-123.920206852,43.051788937],[-123.920270693,43.0518059990001],[-123.920335381,43.051823015],[-123.920397934,43.0518368940001],[-123.920457549,43.0518464130001],[-123.920513836,43.0518529180001],[-123.920569087,43.0518588050001],[-123.920627409,43.0518645660001],[-123.920683612,43.0518768260001],[-123.920734468,43.051896233],[-123.92077749,43.05192365],[-123.92080674,43.051955488],[-123.920820711,43.0519901390001],[-123.920824633,43.0520235540001],[-123.920809705,43.052061242],[-123.920784025,43.0520940160001],[-123.920752485,43.052127613],[-123.920720814,43.0521593140001],[-123.920680934,43.052195028],[-123.920632673,43.052230331],[-123.920588809,43.052274401],[-123.92055153,43.0523196090001],[-123.920537288,43.0523694290001],[-123.920554427,43.052414669],[-123.920592136,43.0524552100001],[-123.920630237,43.0524981080001],[-123.920667266,43.0525423190001],[-123.920701443,43.0525901990001],[-123.920736493,43.0526374790001],[-123.9207764,43.0526831330001],[-123.920820575,43.0527209370001],[-123.920868044,43.05275189],[-123.920918899,43.0527774820001],[-123.920970449,43.052789751],[-123.92102616,43.052793234],[-123.921085678,43.0527921660001],[-123.92114897,43.052788929],[-123.921214519,43.0527845390001],[-123.92128187,43.052781473],[-123.921348042,43.05278486],[-123.921416746,43.052790175],[-123.921488894,43.052802967],[-123.921561285,43.0528184410001],[-123.921634821,43.052837751],[-123.921707279,43.0528593760001],[-123.921777692,43.052884067],[-123.921843401,43.0529116970001],[-123.921902701,43.0529414980001],[-123.921952607,43.052977308],[-123.921991459,43.053017164],[-123.922031485,43.053058202],[-123.922073105,43.0530984590001],[-123.922125843,43.0531313590001],[-123.922185925,43.0531531710001],[-123.922251068,43.053160618],[-123.922317931,43.053164882],[-123.922381191,43.0531663960001],[-123.922441371,43.0531743870001],[-123.92249462,43.0531885710001],[-123.922543352,43.0532064860001],[-123.922588216,43.0532243050001],[-123.922632799,43.053242207],[-123.922680602,43.0532602960001],[-123.922730538,43.0532801530001],[-123.922784857,43.053301242],[-123.922841362,43.0533201600001],[-123.922905387,43.053342989],[-123.922967667,43.053362405],[-123.923033418,43.0533841550001],[-123.923098288,43.0534071430001],[-123.923162122,43.053430839],[-123.92322355,43.053450592],[-123.923278961,43.053470115],[-123.923329319,43.05348768],[-123.923379019,43.0535034550001],[-123.923418172,43.0535199770001],[-123.923445982,43.0535439170001],[-123.923478173,43.053575283],[-123.923516403,43.05361034],[-123.92355899,43.0536400920001],[-123.923598827,43.0536640540001],[-123.923641039,43.0536893170001],[-123.923685885,43.0537142250001],[-123.92373289,43.0537392200001],[-123.923786501,43.053757051],[-123.923841655,43.053769754],[-123.923900017,43.0537763730001],[-123.923958426,43.05378332],[-123.924022064,43.0537856110001],[-123.924086323,43.05378411],[-123.924148156,43.0537740780001],[-123.9242073,43.053758574],[-123.924266804,43.0537376130001],[-123.924327056,43.053715148],[-123.924386444,43.053693588],[-123.924443305,43.053673916],[-123.924499862,43.0536546220001],[-123.924555723,43.0536378260001],[-123.924608764,43.0536208130001],[-123.924660208,43.053604229],[-123.924709845,43.053589919],[-123.924761727,43.0535793290001],[-123.924812845,43.053568979],[-123.924864914,43.053558018],[-123.92491637,43.053548381],[-123.924969677,43.0535381500001],[-123.925023211,43.0535299950001],[-123.92507765,43.053523623],[-123.925127194,43.0535218950001],[-123.925174048,43.0535207140001],[-123.925222639,43.05352077],[-123.925267509,43.0535219290001],[-123.925314481,43.0535251580001],[-123.925358283,43.0535320600001],[-123.925398453,43.0535423170001],[-123.92544386,43.0535522420001],[-123.925494493,43.0535618960001],[-123.925546843,43.053574758],[-123.925602319,43.053587599],[-123.925658902,43.05360633],[-123.925718035,43.053626018],[-123.925778392,43.0536451250001],[-123.925835704,43.053666149],[-123.92589708,43.053686429],[-123.925956737,43.0537062220001],[-123.92601886,43.053732961],[-123.926078713,43.0537555110001],[-123.926143953,43.0537685800001],[-123.926206734,43.0537825700001],[-123.926269861,43.0537907240001],[-123.926328399,43.053802053],[-123.926387206,43.0538114290001],[-123.926441805,43.0538197450001],[-123.926494305,43.0538269800001],[-123.926547661,43.0538269850001],[-123.92659482,43.0538316510001],[-123.926641916,43.0538351450001],[-123.926686593,43.053838339],[-123.926730722,43.053842317],[-123.926776261,43.0538453570001],[-123.926828936,43.053838162],[-123.926918529,43.0538506410001],[-123.926975689,43.05385313],[-123.927021446,43.0538575260001],[-123.927063884,43.0538612600001],[-123.927108677,43.053867763],[-123.927150894,43.053872863],[-123.927195246,43.053881296],[-123.927241328,43.053891343],[-123.927278653,43.053904109],[-123.927340606,43.053904636],[-123.92733262,43.0539285140001],[-123.927324248,43.0539317770001],[-123.927301773,43.053957783],[-123.927271317,43.053991368],[-123.927242309,43.0540128600001],[-123.927224872,43.0540477580001],[-123.927255574,43.0540672860001],[-123.927258381,43.054096932],[-123.927280985,43.054122557],[-123.927279549,43.0541636030001],[-123.927260967,43.0541904950001],[-123.927228796,43.0542138530001],[-123.927201017,43.0542346440001],[-123.927148342,43.054276073],[-123.927127143,43.0543146100001],[-123.927160125,43.0542980980001],[-123.927213902,43.054307855],[-123.927215378,43.0543358790001],[-123.927219374,43.0543701290001],[-123.927191785,43.0543893880001],[-123.927199678,43.054417211],[-123.927213055,43.0543861670001],[-123.927249863,43.0543685860001],[-123.927249755,43.0543985990001],[-123.927224712,43.0544209340001],[-123.927246343,43.05446241],[-123.927200227,43.054471172],[-123.927159535,43.054474634],[-123.927170295,43.0545024080001],[-123.927130884,43.0545174920001],[-123.927092189,43.0545285490001],[-123.927046491,43.0545166480001],[-123.927001848,43.054525606],[-123.927014943,43.054571121],[-123.927022155,43.054575109],[-123.926980629,43.054594283],[-123.926969477,43.054634057],[-123.926956098,43.0547023980001],[-123.926976946,43.0546725310001],[-123.926999388,43.054645276],[-123.927032558,43.0546295300001],[-123.92707172,43.054637788],[-123.927086053,43.0547289130001],[-123.927133021,43.0547523930001],[-123.927170229,43.0547627990001],[-123.927163815,43.05481804],[-123.927179409,43.0548624310001],[-123.927139204,43.0548778570001],[-123.92709449,43.054888217],[-123.927059867,43.054859336],[-123.927047015,43.0548315720001],[-123.927024555,43.0548034490001],[-123.927001863,43.054776711],[-123.92697555,43.0547472540001],[-123.926946612,43.0547290860001],[-123.926891557,43.054741816],[-123.926900251,43.0547144340001],[-123.926847784,43.0547357670001],[-123.926803794,43.0547246990001],[-123.926753037,43.0547768800001],[-123.926775734,43.0547903300001],[-123.92676195,43.0548246320001],[-123.926763931,43.054846087],[-123.926733299,43.0548633970001],[-123.926709391,43.0548952460001],[-123.926676626,43.0549282810001],[-123.926660012,43.0549021100001],[-123.92663015,43.054921807],[-123.926513853,43.055046943],[-123.926488448,43.055052566],[-123.926317855,43.055146715],[-123.926282557,43.055173433],[-123.926254501,43.055229495],[-123.926245365,43.055260171],[-123.926224113,43.055299468],[-123.926230991,43.055334868],[-123.926204561,43.0553639560001],[-123.926140616,43.0553756560001],[-123.926091801,43.055381944],[-123.926044219,43.055370257],[-123.925994412,43.055375746],[-123.925967973,43.0553415580001],[-123.925921564,43.0553316960001],[-123.925908083,43.0553578220001],[-123.925893564,43.0553872930001],[-123.92587833,43.055385464],[-123.925840618,43.055371775],[-123.925813328,43.0554019240001],[-123.925774163,43.0553672030001],[-123.925697713,43.055371232],[-123.925638363,43.0553353380001],[-123.925585503,43.055352208],[-123.925556998,43.0553742770001],[-123.92556813,43.055397843],[-123.925517933,43.055454576],[-123.925501232,43.05549196],[-123.925460873,43.0554905320001],[-123.925414555,43.055448975],[-123.925356131,43.055439977],[-123.925314358,43.05546602],[-123.925265099,43.0554813470001],[-123.925254402,43.0555008580001],[-123.925291783,43.0555314360001],[-123.925314747,43.0555827220001],[-123.925327906,43.0555861550001],[-123.925302444,43.0556514400001],[-123.925262171,43.0556853670001],[-123.925214739,43.0556690540001],[-123.925175674,43.0556661320001],[-123.925129627,43.0556458990001],[-123.925095092,43.0556323590001],[-123.925039987,43.0556235820001],[-123.925000085,43.055601912],[-123.924965962,43.055576843],[-123.924928292,43.055591328],[-123.924892591,43.055572892],[-123.924865301,43.055507323],[-123.924824753,43.0555070620001],[-123.924764276,43.0555278940001],[-123.924719046,43.055535408],[-123.924685957,43.055551586],[-123.924692324,43.055573386],[-123.924701483,43.0556166640001],[-123.924703247,43.05568428],[-123.924650607,43.055698922],[-123.924622591,43.0557175710001],[-123.924579373,43.055704672],[-123.924525652,43.0556947380001],[-123.924485581,43.055701716],[-123.924447557,43.0556755220001],[-123.924409382,43.055666106],[-123.924411744,43.055633087],[-123.924398532,43.055615419],[-123.924472023,43.055572539],[-123.924466459,43.055532584],[-123.924426509,43.0554979070001],[-123.92439944,43.0554710270001],[-123.924360399,43.055452001],[-123.924311674,43.055412711],[-123.924271679,43.0554238230001],[-123.924237619,43.0554404920001],[-123.924209446,43.0554334780001],[-123.924161331,43.055443278],[-123.924061636,43.0554845350001],[-123.924014892,43.055499194],[-123.923981412,43.055513567],[-123.923943964,43.0554915760001],[-123.923882844,43.0554973430001],[-123.923865106,43.055470402],[-123.923849021,43.055433845],[-123.923775846,43.0553960300001],[-123.923737495,43.0553894920001],[-123.923731884,43.055433426],[-123.923728273,43.0554663010001],[-123.923755689,43.0554924030001],[-123.923714278,43.055515497],[-123.923688766,43.0555306590001],[-123.923651336,43.055528925],[-123.923604926,43.05554898],[-123.923567082,43.05556046],[-123.923525923,43.055572764],[-123.923496354,43.0555965360001],[-123.923458623,43.0556190630001],[-123.923407168,43.055606507],[-123.923375227,43.055651422],[-123.923356829,43.055620348],[-123.923349774,43.055574429],[-123.923352251,43.0555261740001],[-123.923322693,43.055495066],[-123.923285406,43.0555020190001],[-123.923255953,43.0555219660001],[-123.923216562,43.05553085],[-123.923181678,43.0554630760001],[-123.923155629,43.055440327],[-123.923146197,43.0553887610001],[-123.923135249,43.0553533630001],[-123.923110694,43.055325639],[-123.923020103,43.0552944070001],[-123.922986102,43.0552689560001],[-123.922909227,43.0552707570001],[-123.922904042,43.055229324],[-123.922838038,43.0552064770001],[-123.922746906,43.0552012100001],[-123.922704726,43.0551865360001],[-123.92261559,43.055128616],[-123.922594878,43.055150591],[-123.922539368,43.055166682],[-123.922499943,43.055178647],[-123.922477194,43.0552038530001],[-123.922423008,43.055220487],[-123.922378833,43.055228846],[-123.922321746,43.055246206],[-123.922287217,43.055246062],[-123.92225313,43.0552706980001],[-123.922218788,43.055228642],[-123.922194241,43.055207658],[-123.922143484,43.0551879930001],[-123.922099256,43.05518434],[-123.922055234,43.055204615],[-123.922013903,43.0552069240001],[-123.921979484,43.055250291],[-123.92196515,43.0552846080001],[-123.921931354,43.0552657800001],[-123.921916528,43.055233851],[-123.9218733,43.0552240050001],[-123.921828718,43.055208506],[-123.921780113,43.0552213330001],[-123.92172917,43.0552412820001],[-123.92168828,43.055267218],[-123.921647867,43.055281521],[-123.921643015,43.0553265770001],[-123.921595154,43.0553363600001],[-123.921550348,43.0553387050001],[-123.921433563,43.055322511],[-123.921356826,43.0553473080001],[-123.921291879,43.0553538870001],[-123.921229927,43.0553567600001],[-123.921429312,43.0553864710001],[-123.921412684,43.0554197170001],[-123.9213841,43.0554450450001],[-123.921367634,43.055473862],[-123.921314574,43.0554844050001],[-123.921269968,43.0554633420001],[-123.921269412,43.0554202440001],[-123.92121594,43.055404319],[-123.921159609,43.0554069290001],[-123.921112406,43.0553857360001],[-123.921074539,43.055387598],[-123.921022329,43.0553446850001],[-123.921002664,43.0553206320001],[-123.920985791,43.0553062380001],[-123.920952263,43.0552790620001],[-123.920909722,43.055277801],[-123.920867079,43.05526768],[-123.920831208,43.0552579660001],[-123.920766079,43.055244449],[-123.920686345,43.055230366],[-123.920668246,43.055262914],[-123.920638911,43.055288046],[-123.920636236,43.0553380470001],[-123.920612903,43.055399922],[-123.920581479,43.055426895],[-123.92064593,43.0555713690001],[-123.92064546,43.0555936280001],[-123.920599338,43.0555974110001],[-123.92055343,43.0555883420001],[-123.920509077,43.055611207],[-123.920493801,43.0556471460001],[-123.920495239,43.055675996],[-123.920500133,43.055705104],[-123.920488242,43.055731682],[-123.920455797,43.055750716],[-123.920417562,43.0557352070001],[-123.920385829,43.0557500690001],[-123.920337786,43.055736869],[-123.920291469,43.0557371790001],[-123.920251136,43.055758655],[-123.920223726,43.0557131520001],[-123.920181585,43.055718959],[-123.92021152,43.0557556250001],[-123.920175721,43.0557705800001],[-123.920159979,43.055734672],[-123.920136295,43.05569375],[-123.920122584,43.0556628150001],[-123.920206422,43.055594796],[-123.92025252,43.0555785700001],[-123.920171341,43.0555151940001],[-123.920138435,43.0555149730001],[-123.920080293,43.055513438],[-123.920011577,43.055511944],[-123.920004352,43.055507506],[-123.919964294,43.055498691],[-123.919954264,43.055471191],[-123.919953286,43.055464908],[-123.91997002,43.055438945],[-123.919954892,43.055412087],[-123.919994581,43.0553851820001],[-123.920042297,43.0553690990001],[-123.920052126,43.0553574630001],[-123.919996656,43.0553209080001],[-123.919945132,43.05528716],[-123.919929956,43.0552553210001],[-123.919903536,43.055245089],[-123.919894623,43.055210587],[-123.919921939,43.0551911250001],[-123.919878336,43.055162355],[-123.919836295,43.055159388],[-123.919802677,43.055176659],[-123.919752264,43.0551575870001],[-123.919742391,43.055129493],[-123.919719686,43.055106462],[-123.919677951,43.0550968970001],[-123.9196645,43.055071732],[-123.919688776,43.0550359380001],[-123.919633695,43.0550244950001],[-123.919631839,43.055006948],[-123.919613251,43.054980271],[-123.919599558,43.054979012],[-123.919559639,43.054961249],[-123.919517586,43.054935836],[-123.919499389,43.054916867],[-123.919481988,43.054891067],[-123.919428151,43.054895985],[-123.919382971,43.054900692],[-123.919368458,43.0548715050001],[-123.919391646,43.054844152],[-123.919401173,43.0548082450001],[-123.919400057,43.0547737360001],[-123.919418846,43.0547321720001],[-123.919435924,43.0546954810001],[-123.919445687,43.0546683200001],[-123.919483682,43.0546544900001],[-123.919469545,43.0546260310001],[-123.919469096,43.0546145270001],[-123.919466209,43.054606585],[-123.919443358,43.054581828],[-123.919398761,43.054539263],[-123.919376374,43.0545097400001],[-123.919322248,43.0544772740001],[-123.919259995,43.054486937],[-123.919197407,43.054480508],[-123.919157962,43.0544676010001],[-123.919130896,43.0544461910001],[-123.919093426,43.0544300990001],[-123.919063762,43.054447548],[-123.919079252,43.0544729310001],[-123.919070865,43.0545011720001],[-123.919020509,43.0544832950001],[-123.91897878,43.054479374],[-123.918951722,43.054509566],[-123.918947076,43.0545403140001],[-123.918965221,43.0545734360001],[-123.918943782,43.0546072590001],[-123.918982499,43.054597345],[-123.919021284,43.054608731],[-123.919040676,43.0546196010001],[-123.919014333,43.0546521960001],[-123.918985769,43.054675488],[-123.918991788,43.0546966730001],[-123.91895473,43.0547340620001],[-123.918898552,43.0547350640001],[-123.918864333,43.0547470820001],[-123.91883852,43.0547499190001],[-123.918807103,43.054725686],[-123.918772802,43.054702793],[-123.91873919,43.0546816670001],[-123.918701579,43.054674472],[-123.9186749,43.0547221460001],[-123.918692105,43.054749364],[-123.918654008,43.054765483],[-123.918620814,43.054749837],[-123.918577243,43.054772255],[-123.918631603,43.054808339],[-123.918579041,43.0548313310001],[-123.91854019,43.054860261],[-123.91846792,43.0548488040001],[-123.918412135,43.0548561790001],[-123.918390011,43.0548798940001],[-123.918375552,43.0549120430001],[-123.918320143,43.0549437220001],[-123.918315416,43.054974708],[-123.918315709,43.0550023810001],[-123.91829044,43.0549892760001],[-123.918280698,43.0549684690001],[-123.918299431,43.0549444530001],[-123.918308818,43.0549099720001],[-123.918326413,43.0548840010001],[-123.918293726,43.054858536],[-123.918286163,43.0548149630001],[-123.918284552,43.054802964],[-123.918279774,43.0547784820001],[-123.918239546,43.0547754240001],[-123.918226068,43.054726767],[-123.91825544,43.0546985010001],[-123.918238147,43.0546711160001],[-123.918247858,43.054638878],[-123.918224499,43.0546169720001],[-123.918204468,43.0545904700001],[-123.918220208,43.054559345],[-123.918238205,43.0545327940001],[-123.918279384,43.054532855],[-123.9183288,43.0545312950001],[-123.918340682,43.054500707],[-123.918361943,43.0544709800001],[-123.918400804,43.0544619990001],[-123.918424268,43.0544374620001],[-123.918467885,43.054442437],[-123.918510638,43.05442886],[-123.918547762,43.05441225],[-123.918583613,43.054391378],[-123.918618135,43.0543745750001],[-123.918644768,43.0543493380001],[-123.91866841,43.0543258880001],[-123.918687364,43.054300787],[-123.918691645,43.054268119],[-123.918694593,43.0542400630001],[-123.918699548,43.054209599],[-123.918730047,43.0541734760001],[-123.918725208,43.054141982],[-123.918728225,43.0541140080001],[-123.918771223,43.054095912],[-123.918801495,43.0540752090001],[-123.91882494,43.0540535370001],[-123.918850802,43.054015695],[-123.918878602,43.0539893490001],[-123.918910104,43.053972263],[-123.918950116,43.053953205],[-123.918992222,43.053934643],[-123.919002597,43.053927441],[-123.91903779,43.0539106140001],[-123.91907991,43.0538894520001],[-123.919043334,43.053866224],[-123.919009758,43.053840807],[-123.918990179,43.053814274],[-123.918943013,43.053791436],[-123.918906447,43.0537603820001],[-123.918888215,43.053732944],[-123.918866181,43.053706263],[-123.918843596,43.053680216],[-123.918820003,43.0536554020001],[-123.918796319,43.0536308220001],[-123.918770746,43.0536081920001],[-123.918742798,43.053586754],[-123.918712932,43.0535626760001],[-123.918683222,43.0535385540001],[-123.918657099,43.0535171390001],[-123.918608599,43.053482376],[-123.918574295,43.0534543160001],[-123.918529315,43.0534170660001],[-123.918503365,43.053393972],[-123.918477034,43.053371457],[-123.918449498,43.0533486580001],[-123.918418445,43.0533231200001],[-123.918387785,43.0533019110001],[-123.918348709,43.0532740020001],[-123.918295969,43.0532475410001],[-123.918252207,43.053214123],[-123.918211224,43.0531737420001],[-123.91817326,43.053136486],[-123.918133486,43.0531003350001],[-123.918104575,43.053073049],[-123.918069555,43.0530364310001],[-123.918045719,43.053011359],[-123.918018704,43.0529855550001],[-123.91798843,43.052961651],[-123.917957276,43.052939931],[-123.917922937,43.0529187870001],[-123.917887474,43.052899396],[-123.917851263,43.052882464],[-123.917815975,43.0528687460001],[-123.917750112,43.052837491],[-123.917712683,43.052814545],[-123.917675465,43.052784311],[-123.917649961,43.0527552950001],[-123.917625706,43.0527199430001],[-123.917599773,43.0526841980001],[-123.917569473,43.0526492990001],[-123.917536794,43.0526169170001],[-123.917506707,43.052584994],[-123.917476054,43.052556527],[-123.917443676,43.052529129],[-123.917409104,43.0525012250001],[-123.917370164,43.0524730660001],[-123.917331637,43.0524463730001],[-123.917286859,43.0524184590001],[-123.917244016,43.052393652],[-123.917193258,43.052365572],[-123.917143692,43.052341701],[-123.917093928,43.0523178230001],[-123.917045749,43.0522942060001],[-123.916999473,43.0522719000001],[-123.916956446,43.052250648],[-123.916914788,43.0522312940001],[-123.916874643,43.052212329],[-123.916834556,43.0521914660001],[-123.916799056,43.0521712230001],[-123.916764979,43.0521507540001],[-123.91673222,43.052130903],[-123.916700265,43.0521141240001],[-123.916668862,43.0520964930001],[-123.916634594,43.0520785670001],[-123.916600203,43.0520587410001],[-123.916562663,43.052039634],[-123.916523361,43.052018995],[-123.916484376,43.051998143],[-123.916447416,43.051976708],[-123.916414401,43.0519523730001],[-123.91638535,43.051926065],[-123.916362698,43.05189877],[-123.91634486,43.0518707200001],[-123.916331028,43.051838194],[-123.916318824,43.051807511],[-123.916307675,43.051778352],[-123.916290159,43.0517274090001],[-123.916277463,43.0516805130001],[-123.916263292,43.051636946],[-123.916247241,43.0515997210001],[-123.916230043,43.051558292],[-123.916217336,43.051531466],[-123.916202932,43.051501188],[-123.916188088,43.0514669070001],[-123.91616964,43.051431323],[-123.916149079,43.0513939520001],[-123.916125608,43.051359195],[-123.916101024,43.0513237850001],[-123.916076586,43.0512907660001],[-123.916052424,43.051258886],[-123.916028455,43.0512271790001],[-123.916005121,43.051196663],[-123.915970702,43.05115442],[-123.915942852,43.051121976],[-123.915916661,43.0510878430001],[-123.915897875,43.051060007],[-123.915875949,43.051028128],[-123.915858938,43.050989056],[-123.915847412,43.0509469],[-123.915840366,43.0509063370001],[-123.915838847,43.050867757],[-123.915837358,43.050837567],[-123.915835578,43.0508080390001],[-123.915833149,43.0507535620001],[-123.915836303,43.0507087830001],[-123.915838976,43.050680716],[-123.915841338,43.0506468720001],[-123.915836509,43.0506084470001],[-123.91582267,43.05057177],[-123.915804869,43.050537251],[-123.915783177,43.0505034230001],[-123.915763123,43.0504695000001],[-123.915722443,43.050412743],[-123.915741062,43.050377273],[-123.915795974,43.050358294],[-123.915840516,43.050373796],[-123.91588353,43.050392349],[-123.915919202,43.0504088370001],[-123.915965863,43.050432302],[-123.916017266,43.05046308],[-123.916068557,43.050498389],[-123.916118822,43.0505363170001],[-123.916168179,43.050578864],[-123.916218667,43.0506232600001],[-123.916278805,43.050663473],[-123.91634394,43.0507021340001],[-123.916406152,43.050738607],[-123.916467324,43.0507705050001],[-123.916526806,43.0508021110001],[-123.916581993,43.050833894],[-123.916632485,43.050868177],[-123.916677449,43.0509038710001],[-123.91672193,43.050939172],[-123.916764847,43.0509742350001],[-123.916810795,43.051008209],[-123.916867665,43.0510376130001],[-123.916929333,43.0510535670001],[-123.916991736,43.0510571450001],[-123.917053237,43.0510567540001],[-123.91711369,43.051054062],[-123.917170902,43.0510533390001],[-123.917230186,43.0510539810001],[-123.917289379,43.0510559080001],[-123.917348131,43.0510601730001],[-123.917405438,43.0510694590001],[-123.917462629,43.0510803230001],[-123.917523394,43.0510903100001],[-123.917586537,43.051104738],[-123.917651663,43.0511176000001],[-123.917722082,43.0511301180001],[-123.917781344,43.051145907],[-123.917842759,43.0511620460001],[-123.917906427,43.051181215],[-123.917972689,43.0512029170001],[-123.918035968,43.0512254990001],[-123.918094516,43.05125],[-123.91815189,43.051271388],[-123.918207908,43.0512944390001],[-123.918269261,43.0513097050001],[-123.918332937,43.0513144070001],[-123.918393006,43.0513123440001],[-123.918452185,43.051306331],[-123.918513744,43.0513014040001],[-123.918573881,43.0513047970001],[-123.918625417,43.0513214640001],[-123.918673946,43.0513443290001],[-123.918714191,43.051374056],[-123.918742403,43.051409435],[-123.918761148,43.051449145],[-123.918768621,43.0514903380001],[-123.918776893,43.051535884],[-123.918792035,43.051585507],[-123.918813526,43.051636424],[-123.918834949,43.0516852310001],[-123.918853079,43.0517302820001],[-123.918869015,43.051774139],[-123.918888045,43.051814914],[-123.918922448,43.051850985],[-123.918968544,43.0518814060001],[-123.919025592,43.051897835],[-123.919088584,43.0519075920001],[-123.919155369,43.051914842],[-123.91922524,43.051911976],[-123.919281407,43.051887977],[-123.919330222,43.051860527],[-123.919377791,43.051832376],[-123.919427314,43.05180217],[-123.919481664,43.0517756680001],[-123.919536223,43.0517532470001],[-123.919591341,43.051737233],[-123.919649811,43.051725575],[-123.919709515,43.051719715],[-123.91977009,43.0517188760001],[-123.919827532,43.051722017],[-123.919883005,43.051726683],[-123.919931951,43.051733208],[-123.919974723,43.051739641],[-123.920013602,43.0517452010001],[-123.920055466,43.051753331]]]},"properties":{"attr_IncidentName":"Tanner Creek","attr_PercentContained":null,"acres":51.6,"is_active":true,"status":"Active","state":"Oregon","dist_nearest_km":7.85,"nearest_station_name":"Bridge Volunteer Fire Department","date_current":"Feb 10, 2026","feature_category":"Wildfire Daily Fire Perimeter"}},{"type":"Feature","geometry":{"type":"Polygon","coordinates":[[[-117.53114461417,47.5159201150939],[-117.531161734263,47.5159200811182],[-117.531201978787,47.5159443658521],[-117.531235229928,47.5159619883094],[-117.531272861253,47.515981130565],[-117.531306848114,47.515999912429],[-117.53134651053,47.5160118099722],[-117.531354496553,47.5160443689414],[-117.531359258522,47.5160801088559],[-117.531353572187,47.5161083771527],[-117.531355600582,47.5161384588797],[-117.531350442456,47.5161670535528],[-117.531341174537,47.5162020987057],[-117.531295878786,47.5162155778845],[-117.531248408213,47.5162328726298],[-117.531214892968,47.5162682156309],[-117.531186128014,47.516288382499],[-117.531150933818,47.5163026200362],[-117.531104410069,47.5162908038574],[-117.531055042255,47.5162976389918],[-117.531001498172,47.5162897706393],[-117.530950675087,47.5162740497052],[-117.53090472087,47.5162621000448],[-117.530853900479,47.5162491608456],[-117.530804975534,47.516259713874],[-117.53076194713,47.5162888423812],[-117.530713778566,47.5163013053075],[-117.530673798146,47.5163055910683],[-117.53062959295,47.5163076544702],[-117.530575228705,47.5163207714194],[-117.530519801754,47.5163257300136],[-117.530466058245,47.5163416723793],[-117.530421048158,47.5163436666155],[-117.530365605935,47.5163491712412],[-117.530325707262,47.5163350144082],[-117.5302700728,47.5163266012409],[-117.530225658296,47.5163250923674],[-117.530184733746,47.5163292203832],[-117.530124516079,47.5163478656142],[-117.530068296814,47.5163584422842],[-117.530023734088,47.5163601155734],[-117.53000041023,47.516332574244],[-117.529977174407,47.5163037630676],[-117.529941917328,47.5163213132064],[-117.529925654228,47.5163619320448],[-117.529886028643,47.5163730244101],[-117.529840955673,47.5163711381682],[-117.52978862791,47.5163537664171],[-117.529739066957,47.5163380940384],[-117.529697713912,47.5163253223084],[-117.529654320792,47.5163149864933],[-117.529602533814,47.516302263294],[-117.529557022467,47.5162829773665],[-117.529520574222,47.5162680500004],[-117.52952866984,47.5162407155091],[-117.529570486416,47.5162126656978],[-117.529599983497,47.5161875923705],[-117.529633030719,47.5161676602589],[-117.529660856035,47.5161420578621],[-117.529675367421,47.5161120999053],[-117.529649726807,47.5160843327507],[-117.529677958162,47.5160521815136],[-117.529723781224,47.5160401614246],[-117.529762120422,47.5160196389303],[-117.529782537332,47.5159958644728],[-117.529823319049,47.5159849686013],[-117.529869151095,47.5159634268152],[-117.52986321413,47.5159354065843],[-117.529874433189,47.5159085518266],[-117.529903231381,47.5158860483749],[-117.529946719722,47.5158746561921],[-117.529986898669,47.5158441490103],[-117.52999805844,47.5158067010457],[-117.529994669995,47.515774647319],[-117.53002351939,47.5157453541076],[-117.530041908803,47.5157171371859],[-117.530062341882,47.5156878578968],[-117.530102224386,47.5156668438281],[-117.530128998673,47.5156460694023],[-117.530147253338,47.5156214296036],[-117.530201907738,47.5156073641879],[-117.530254533742,47.5155943920647],[-117.53030605931,47.5155758921771],[-117.530344011334,47.5155642845439],[-117.53038310332,47.5155374763132],[-117.530412166515,47.515503357775],[-117.530467387752,47.5154904274894],[-117.530521745708,47.515505895052],[-117.530577478985,47.5155128722596],[-117.530629300099,47.5155266713535],[-117.530678796373,47.5155452009874],[-117.530723255793,47.5155586700208],[-117.530759948379,47.5155784603929],[-117.530801099304,47.5155991256372],[-117.530866047499,47.5156075474151],[-117.53090926365,47.5156205626116],[-117.530949708499,47.5156475722282],[-117.530967978436,47.5156809159017],[-117.530992143117,47.5157119006603],[-117.531037481089,47.5157218616466],[-117.531064676686,47.5157421664481],[-117.531116949652,47.5157621830541],[-117.531154873829,47.5157879518749],[-117.531171171963,47.515816908945],[-117.53118691943,47.5158532872731],[-117.531166589657,47.5158792823517],[-117.53114461417,47.5159201150939]]]},"properties":{"attr_IncidentName":"CHENEY","attr_PercentContained":null,"acres":2,"is_active":true,"status":"Active","state":"Washington","dist_nearest_km":4.52,"nearest_station_name":"Cheney Fire Department","date_current":"Mar 10, 2026","feature_category":"Wildfire Daily Fire Perimeter"}},{"type":"Feature","geometry":{"type":"Polygon","coordinates":[[[-123.043192062827,43.9875251113055],[-123.043145467434,43.9875277613214],[-123.043113554165,43.9875086145848],[-123.043100897251,43.9874842970567],[-123.043095668666,43.9874742522301],[-123.043090000106,43.9874700001824],[-123.043090000188,43.9874498873417],[-123.043086640322,43.9874259796634],[-123.043078083254,43.9873828751682],[-123.043070813281,43.9873405209234],[-123.043061501866,43.987303004591],[-123.04306119424,43.9873017659032],[-123.043065622439,43.987276184456],[-123.043067080085,43.9872630035702],[-123.043069874361,43.9872377459746],[-123.043103519652,43.9872243556891],[-123.043155647566,43.9872212531867],[-123.043189402529,43.9872082972265],[-123.043195575885,43.9871682432552],[-123.043215683781,43.9871391732295],[-123.043232286169,43.9871106193302],[-123.043245934192,43.9870819081672],[-123.043254309553,43.9870471825819],[-123.043261183642,43.9870191561357],[-123.043240834193,43.986989231387],[-123.043216295753,43.9869593877417],[-123.043187837745,43.9869455530931],[-123.043162054908,43.9869332472995],[-123.043145556482,43.9869255062286],[-123.043107522605,43.9869175219182],[-123.043102470059,43.9869164614288],[-123.043074474243,43.9869052570564],[-123.043060475931,43.9868832220059],[-123.043052780793,43.9868606658841],[-123.043027420315,43.9868373007997],[-123.043019528925,43.9868122056908],[-123.043023026832,43.9867870377285],[-123.04303238892,43.9867665254243],[-123.043076792521,43.9867620259478],[-123.043108169764,43.9867621805118],[-123.043145384987,43.9867692284678],[-123.04314816055,43.9867697544855],[-123.043182701912,43.9867818724448],[-123.043210261753,43.986789691173],[-123.043235635598,43.9867745054058],[-123.043265667876,43.9867653522972],[-123.043292976363,43.9867670235331],[-123.043304875324,43.9867408093066],[-123.043337046365,43.9867256866943],[-123.043359640592,43.9867095039469],[-123.043372831111,43.9866883016354],[-123.043352036957,43.986669172787],[-123.043345878003,43.9866474766379],[-123.043324560593,43.9866295249054],[-123.043296307097,43.9866208012824],[-123.043270756745,43.9866157700968],[-123.043244868273,43.986606318979],[-123.043224217624,43.9865941946906],[-123.043220340127,43.9865706948713],[-123.043230707649,43.9865527727785],[-123.043230868528,43.9865494584679],[-123.043233055446,43.9865477785033],[-123.043240000001,43.9865199999536],[-123.043258785939,43.9864949528762],[-123.04327000061,43.9864800001127],[-123.043289999835,43.9864699997094],[-123.043319837709,43.9864625405115],[-123.04332480515,43.9864612990862],[-123.043325167526,43.9864607325889],[-123.043326195734,43.9864514403132],[-123.043323261678,43.986444837701],[-123.043293989326,43.9863789757653],[-123.043291963374,43.9863771108576],[-123.043292931723,43.986376596549],[-123.043290000438,43.9863700001785],[-123.043289999671,43.9863675117583],[-123.04329470068,43.9863564873604],[-123.043305901067,43.9863421617496],[-123.043306096637,43.9863419520308],[-123.043318889296,43.9863282221356],[-123.043331967307,43.9863235245657],[-123.043350000276,43.98630999985],[-123.043370000544,43.9862800000435],[-123.043399999841,43.9862599995564],[-123.043439999494,43.9862500001522],[-123.043459999696,43.9862200003298],[-123.04348999988,43.9861699998494],[-123.043520000235,43.9861399996218],[-123.043543702013,43.9861241982332],[-123.0435481712,43.9861218403583],[-123.043552091301,43.986120000022],[-123.043566619813,43.9861131778073],[-123.043567224935,43.9861127742952],[-123.043610000163,43.98607000008],[-123.04361546367,43.9860590729851],[-123.043615971556,43.9860584383856],[-123.04362127849,43.9860517972845],[-123.043623340002,43.9860483296673],[-123.043673251558,43.9860233741005],[-123.043683722562,43.9860227183045],[-123.043690691764,43.9860235638589],[-123.04369385662,43.9860239478586],[-123.043706823078,43.9860285103045],[-123.043707544175,43.9860291813488],[-123.043709768865,43.9860299223203],[-123.043712038726,43.9860293617727],[-123.043737338562,43.9860516644186],[-123.043758942855,43.9860724655477],[-123.043774717576,43.9860970014391],[-123.043775184338,43.986097239568],[-123.043804028586,43.9861119417337],[-123.04384052658,43.9860976389823],[-123.043840493673,43.9860853650459],[-123.043840440537,43.9860660234256],[-123.043845960558,43.9860451971412],[-123.043885448999,43.9860387818103],[-123.043916507211,43.9860544980463],[-123.043925348556,43.9860589717544],[-123.043959075082,43.9860575766567],[-123.043989672623,43.986060846582],[-123.044012171128,43.986070396809],[-123.044023405051,43.9860464552555],[-123.044024547948,43.9860403603389],[-123.044028850121,43.9860357978397],[-123.044034865556,43.9860294191568],[-123.04404103885,43.9860166640893],[-123.044053339301,43.9860057118537],[-123.044058486792,43.9860034936862],[-123.044073846449,43.9860006633055],[-123.044097096691,43.9859918112492],[-123.044100552234,43.9859904820399],[-123.044129822437,43.9859822724931],[-123.04415018446,43.9859954901361],[-123.044165442324,43.9860225692126],[-123.044168244359,43.9860435280861],[-123.044132997606,43.9860639038038],[-123.044105110459,43.9860848632254],[-123.044095315646,43.9860900836259],[-123.044093479683,43.9860920925891],[-123.044105517258,43.9861098258644],[-123.044138009571,43.9861325042325],[-123.044180314543,43.9861344259331],[-123.044179602502,43.9861624109065],[-123.044183637877,43.9861903643819],[-123.044179774521,43.9862052643939],[-123.044185969675,43.9862144904842],[-123.044199664915,43.9862466894817],[-123.044199893716,43.9862496654433],[-123.044206830825,43.9862702462704],[-123.044209053644,43.9862946810253],[-123.044214675122,43.9863234924257],[-123.044212147453,43.9863465798849],[-123.044238419932,43.9863476868666],[-123.044276467191,43.9863562198786],[-123.044307395226,43.9863871433482],[-123.044318323044,43.9864066846871],[-123.044318459674,43.9864079785351],[-123.04432136906,43.9864113601258],[-123.044324890086,43.9864312248509],[-123.044321400837,43.9864358078934],[-123.044321428008,43.9864360630639],[-123.044327246702,43.9864545038044],[-123.044333616813,43.986472103624],[-123.044324508354,43.9864900282667],[-123.044310163486,43.9865058347464],[-123.044283883492,43.986516495568],[-123.044256998322,43.9865243338469],[-123.044251409684,43.9865242094525],[-123.044246762606,43.9865217556724],[-123.044231779014,43.9865119643461],[-123.04419148336,43.9865180340025],[-123.044147764564,43.9865165420197],[-123.044109655552,43.9865028533427],[-123.044087837835,43.9865168942839],[-123.044079358148,43.9865466778262],[-123.044077137084,43.9865484045039],[-123.044074287325,43.9865500146602],[-123.044045708056,43.9865494239876],[-123.044015790939,43.9865512589207],[-123.044008331268,43.9865517167637],[-123.043986211199,43.9865721400035],[-123.043988673319,43.9866011049727],[-123.043989504975,43.9866090875495],[-123.043991479909,43.9866280403208],[-123.044018974491,43.9866509584594],[-123.04398322846,43.9866725566397],[-123.043946560815,43.9866808227068],[-123.043924343572,43.9867073525707],[-123.043888791445,43.9867099611217],[-123.043850816098,43.9867011021407],[-123.043832986897,43.9867214662548],[-123.043814060951,43.9867416495645],[-123.043783231225,43.9867485835023],[-123.043780650329,43.9867491636194],[-123.04376587626,43.9867641879767],[-123.043753882239,43.9867898685087],[-123.043766137193,43.9867999659265],[-123.04378817463,43.986818123023],[-123.04376948841,43.9868387485723],[-123.043715761806,43.9868430741661],[-123.043679833743,43.9868577630913],[-123.043643470207,43.9868787265233],[-123.04360194717,43.9868802707481],[-123.043564686703,43.9868882140178],[-123.043533718346,43.9869086604199],[-123.043519681694,43.986933369817],[-123.043517623523,43.9869746394504],[-123.043505988432,43.9870099648612],[-123.043499830114,43.9870454523304],[-123.043498974939,43.9870864725911],[-123.043477803357,43.9871042996032],[-123.043486270894,43.9871269735126],[-123.043490173382,43.9871374217536],[-123.043534397623,43.9871475991618],[-123.043539724222,43.9871488246203],[-123.043580998862,43.9871430872488],[-123.043615096698,43.9871527986198],[-123.043648989953,43.9871622479722],[-123.043658591104,43.9871870643188],[-123.043658895115,43.9871897296822],[-123.04365696856,43.9871907625812],[-123.043612321244,43.9871998204097],[-123.043589826462,43.9872001300977],[-123.043577771241,43.9872002962603],[-123.043548609738,43.9872284332319],[-123.043546768958,43.9872324236761],[-123.04353491751,43.9872581172009],[-123.043510764275,43.9872855566953],[-123.043466904355,43.9873097652372],[-123.043438603973,43.9873363158172],[-123.043418207622,43.987371946212],[-123.043386311432,43.9873904868801],[-123.043358829718,43.9874043175552],[-123.043338790744,43.987426826784],[-123.043307729825,43.9874470140041],[-123.043275899442,43.9874607825369],[-123.043250647877,43.9874855383525],[-123.043241397906,43.9875176743799],[-123.043237605978,43.9875216607357],[-123.043234283611,43.9875220845068],[-123.043228768123,43.9875230562901],[-123.043192219618,43.987525102394],[-123.043192062827,43.9875251113055]]]},"properties":{"attr_IncidentName":"85564 Scharen Road","attr_PercentContained":null,"acres":1.9,"is_active":true,"status":"Active","state":"Oregon","dist_nearest_km":5.31,"nearest_station_name":"Eugene Springfield Fire Station #15","date_current":"Mar 20, 2026","feature_category":"Wildfire Daily Fire Perimeter"}},{"type":"Feature","geometry":{"type":"Polygon","coordinates":[[[-117.715897508,48.30936424],[-117.715935928,48.309377118],[-117.715923002,48.3094115040001],[-117.715881668,48.3094414110001],[-117.715887075,48.309474892],[-117.715929055,48.309499449],[-117.715941625,48.3095325030001],[-117.715954288,48.309560063],[-117.715943761,48.3095888],[-117.715929385,48.309615073],[-117.715902101,48.3096363650001],[-117.715853003,48.3096562970001],[-117.715845511,48.309691856],[-117.715821812,48.30971486],[-117.715797379,48.309743902],[-117.715767705,48.3097721290001],[-117.715724334,48.309789617],[-117.715684066,48.309809009],[-117.715646796,48.3098384460001],[-117.715608596,48.3098493420001],[-117.715574544,48.309866738],[-117.715543758,48.3098905350001],[-117.715526797,48.3099336320001],[-117.715501481,48.309958802],[-117.715471554,48.3099808440001],[-117.715423357,48.3099762260001],[-117.715389451,48.309959151],[-117.715373904,48.3099296080001],[-117.715361197,48.3099059040001],[-117.715360893,48.309905588],[-117.715338895,48.309882746],[-117.71532494,48.309852145],[-117.71529894,48.309829188],[-117.715253494,48.309830468],[-117.715215947,48.309847645],[-117.71516734,48.3098618720001],[-117.715142686,48.3098392800001],[-117.715135496,48.3098109530001],[-117.715131618,48.309781259],[-117.715153968,48.3097544780001],[-117.715192468,48.3097419370001],[-117.715230221,48.3097250330001],[-117.715257515,48.30970397],[-117.715300951,48.309681934],[-117.715334597,48.309665646],[-117.715377095,48.309657492],[-117.715422538,48.3096465240001],[-117.7154597,48.3096289790001],[-117.715499809,48.309612674],[-117.715537525,48.3095961540001],[-117.715566013,48.3095761650001],[-117.715577124,48.3095492150001],[-117.715592113,48.309517617],[-117.715632126,48.3095032150001],[-117.715631055,48.3094739900001],[-117.715577731,48.309458175],[-117.715537968,48.309441313],[-117.715492768,48.309428903],[-117.715505593,48.309401242],[-117.715552305,48.3093914790001],[-117.715596055,48.3093925090001],[-117.715643132,48.3093889840001],[-117.715694767,48.309401016],[-117.715739724,48.3093970150001],[-117.715787058,48.3094095390001],[-117.715823915,48.3094338930001],[-117.715876172,48.3094207730001],[-117.715871419,48.309391664],[-117.715897508,48.30936424]]]},"properties":{"attr_IncidentName":"COZY GRADE","attr_PercentContained":null,"acres":0.5,"is_active":true,"status":"Active","state":"Washington","dist_nearest_km":20.78,"nearest_station_name":"Arden Fire Station","date_current":"Mar 05, 2026","feature_category":"Wildfire Daily Fire Perimeter"}},{"type":"Feature","geometry":{"type":"Polygon","coordinates":[[[-120.154538518678,39.8642353953327],[-120.154505317843,39.8642364951103],[-120.154486176541,39.8642686265353],[-120.154452266038,39.8642781694278],[-120.15441225238,39.8642617789576],[-120.154382943047,39.8642369612229],[-120.154398837838,39.8642101811168],[-120.154406439382,39.8641820136935],[-120.154443835349,39.864189150876],[-120.15446599499,39.8642181884654],[-120.154532413727,39.864228544304],[-120.154538518678,39.8642353953327]]]},"properties":{"attr_IncidentName":"SAWMILL","attr_PercentContained":null,"acres":0.1,"is_active":true,"status":"Active","state":"California","dist_nearest_km":4.52,"nearest_station_name":"Frenchman","date_current":"Feb 10, 2026","feature_category":"Wildfire Daily Fire Perimeter"}},{"type":"Feature","geometry":{"type":"Polygon","coordinates":[[[-121.584909255821,39.8378152626736],[-121.584922122042,39.8378239836367],[-121.584934317711,39.8378360513883],[-121.584939095396,39.8378529784176],[-121.584917973,39.8378648208995],[-121.584894838947,39.8378655932352],[-121.584873213637,39.8378573549873],[-121.584862820077,39.837835600859],[-121.584876482579,39.8378204115819],[-121.584909255821,39.8378152626736]]]},"properties":{"attr_IncidentName":"HOLLYWOOD","attr_PercentContained":null,"acres":0.1,"is_active":true,"status":"Active","state":"California","dist_nearest_km":2.13,"nearest_station_name":"Upper Ridge Station 33","date_current":"Feb 11, 2026","feature_category":"Wildfire Daily Fire Perimeter"}},{"type":"Feature","geometry":{"type":"Polygon","coordinates":[[[-115.279289178998,32.8130848549994],[-115.279298236998,32.8130858169994],[-115.279288234998,32.8131161359995],[-115.279259390998,32.8131293949994],[-115.279227563998,32.8131413399994],[-115.279215672998,32.8131675199994],[-115.279186031998,32.8131803069994],[-115.279162194998,32.8131550949994],[-115.279130339998,32.8131701119995],[-115.279094815998,32.8131733089994],[-115.279069183998,32.8131515159995],[-115.279047023998,32.8131271769994],[-115.279037737998,32.8130982929995],[-115.279041878998,32.8130678509994],[-115.279044762998,32.8130396019994],[-115.279034152998,32.8130118049995],[-115.279036829998,32.8129833129995],[-115.279023629998,32.8129527759995],[-115.279053950998,32.8129396269995],[-115.279081344998,32.8129189529995],[-115.279117063998,32.8129238409994],[-115.279150238998,32.8129162369995],[-115.279169361998,32.8129397069994],[-115.279186757998,32.8129685529995],[-115.279209539998,32.8129884779995],[-115.279247830998,32.8129921229995],[-115.279280025998,32.8129760779995],[-115.279270405998,32.8130054559994],[-115.279277238998,32.8130323909994],[-115.279301804998,32.8130523679995],[-115.279289178998,32.8130848549994]]]},"properties":{"attr_IncidentName":"NELSON","attr_PercentContained":null,"acres":0.1,"is_active":true,"status":"Active","state":"California","dist_nearest_km":9.37,"nearest_station_name":"Holtville Fire Department","date_current":"","feature_category":"Wildfire Final Fire Perimeter"}},{"type":"Feature","geometry":{"type":"Polygon","coordinates":[[[-117.054063594292,48.0007961019188],[-117.054092296363,48.0008247301955],[-117.05415605968,48.0008339742139],[-117.05418976447,48.0008541296424],[-117.054170698626,48.0008826310591],[-117.054162580551,48.0009130913785],[-117.054153832757,48.0009449497903],[-117.054131444045,48.0009680077858],[-117.054080085564,48.0009514937395],[-117.054023029068,48.0009397636783],[-117.05402833901,48.0009078860288],[-117.054024055843,48.0008732830626],[-117.054004337822,48.0008447209317],[-117.054035254241,48.0008265418526],[-117.053980377957,48.000815362954],[-117.053940495453,48.0008251124829],[-117.053888321302,48.0008393088034],[-117.053851520918,48.0008521719239],[-117.053799652193,48.0008663526089],[-117.053747454685,48.0008543478346],[-117.053759882877,48.0008274182281],[-117.053802747788,48.0008011041145],[-117.053850887605,48.000802445727],[-117.053892908099,48.0007978450536],[-117.05393402399,48.0007926348837],[-117.053985015959,48.0007908965573],[-117.054029909265,48.0007833590006],[-117.054063594292,48.0007961019188]]]},"properties":{"attr_IncidentName":"BLANCHARD","attr_PercentContained":null,"acres":0.1,"is_active":true,"status":"Active","state":"Washington","dist_nearest_km":5.77,"nearest_station_name":"Blanchard Station 2","date_current":"Mar 16, 2026","feature_category":"Wildfire Daily Fire Perimeter"}},{"type":"Feature","geometry":{"type":"Polygon","coordinates":[[[-118.121658387019,48.4787688500061],[-118.121702244568,48.4787841023144],[-118.12171568606,48.4788135439667],[-118.121739023392,48.4788379614517],[-118.121784122413,48.4788378560499],[-118.121796426637,48.4787980481116],[-118.121839278073,48.4788090593279],[-118.12187826316,48.4788233534801],[-118.12185411375,48.4788553408294],[-118.121850176434,48.4788939976414],[-118.121833000646,48.4789256693369],[-118.121809117137,48.4789586612111],[-118.121822329559,48.4789848299577],[-118.121820952441,48.4790140737915],[-118.121786757172,48.4790314090428],[-118.121737336356,48.4790141375087],[-118.121693858795,48.4790204068071],[-118.121665647203,48.4790442441874],[-118.121615914673,48.4790387841599],[-118.12161604403,48.4790101370195],[-118.121656994631,48.4790001834341],[-118.121646206762,48.4789708062028],[-118.121613531442,48.4789896480545],[-118.121606138307,48.4790268684473],[-118.121564160034,48.4790297934841],[-118.12151669036,48.4790215912328],[-118.121467515683,48.4790171506785],[-118.121459842273,48.4789874000858],[-118.121499284603,48.4789691293068],[-118.121480645459,48.4789446434039],[-118.121447953071,48.4789264762246],[-118.12148342844,48.4789070870948],[-118.121523690931,48.4788973716849],[-118.121526983256,48.4788603215072],[-118.12147975972,48.4788303886026],[-118.121458643921,48.4788059163289],[-118.121444304114,48.4787790311145],[-118.121467583056,48.4787426936534],[-118.121502566148,48.4787604720428],[-118.121509472396,48.4787939332711],[-118.12153946355,48.4788167762888],[-118.121572602401,48.4787953118321],[-118.121605574165,48.4787756755233],[-118.121635180841,48.478746165963],[-118.121658387019,48.4787688500061]]]},"properties":{"attr_IncidentName":"CHAMBER","attr_PercentContained":null,"acres":0.1,"is_active":true,"status":"Active","state":"Washington","dist_nearest_km":15.17,"nearest_station_name":"Stevens County Fire District","date_current":"Mar 17, 2026","feature_category":"Wildfire Daily Fire Perimeter"}},{"type":"Feature","geometry":{"type":"Polygon","coordinates":[[[-115.801987884387,33.6625355028633],[-115.801982231634,33.6625206789204],[-115.801984625507,33.6625080874232],[-115.80200014209,33.6625018802363],[-115.802019400337,33.6625130424745],[-115.80201384815,33.6625297858304],[-115.801987884387,33.6625355028633]]]},"properties":{"attr_IncidentName":"ASSIST/RRU/61A","attr_PercentContained":null,"acres":0.0,"is_active":true,"status":"Active","state":"California","dist_nearest_km":20.17,"nearest_station_name":"Riverside County Fire Department Station #41","date_current":"","feature_category":"Wildfire Final Fire Perimeter"}},{"type":"Feature","geometry":{"type":"Polygon","coordinates":[[[-116.159905921821,33.7320873646692],[-116.159846315553,33.7321065059506],[-116.159824559046,33.7320943278439],[-116.159818895793,33.7320709965288],[-116.159903093836,33.7320509207474],[-116.159905921821,33.7320873646692]]]},"properties":{"attr_IncidentName":"DILLON","attr_PercentContained":null,"acres":0.0,"is_active":true,"status":"Active","state":"California","dist_nearest_km":3.27,"nearest_station_name":"Cabazon Band of Mission Indians Fire","date_current":"Feb 24, 2026","feature_category":"Wildfire Daily Fire Perimeter"}},{"type":"Feature","geometry":{"type":"Polygon","coordinates":[[[-115.340821011698,33.7054215211694],[-115.340372216975,33.7053575842966],[-115.340376554041,33.7053122367365],[-115.34044357465,33.7052751708557],[-115.340525805532,33.7052930958606],[-115.34056033228,33.7052638520794],[-115.340628707548,33.7052771273165],[-115.340648146193,33.7052971365714],[-115.340672410986,33.7053099387337],[-115.340697478973,33.705323164663],[-115.340738559461,33.7053523456353],[-115.340765017909,33.7053726732414],[-115.340797667178,33.7053813397993],[-115.340821011698,33.7054215211694]]]},"properties":{"attr_IncidentName":"AZTEC","attr_PercentContained":null,"acres":0.0,"is_active":true,"status":"Active","state":"California","dist_nearest_km":6.01,"nearest_station_name":"Lake Tamarisk Station 49","date_current":"Mar 21, 2026","feature_category":"Wildfire Daily Fire Perimeter"}}]}