{
"type": "FeatureCollection",
"name": "rfpa_boundaries.geojson",
"crs": { "type": "name", "properties": { "name": "urn:ogc:def:crs:OGC:1.3:CRS84" } },
"features": [
{ "type": "Feature", "properties": { "name": "Sherman County RFPA area (Sherman County", "acres": 549933.0, "NAME": "Sherman" }, "geometry": { "type": "Polygon", "coordinates": [ [ [ -121.01569, 45.307148 ], [ -120.956471, 45.310345 ], [ -120.868569, 45.401146 ], [ -120.826385, 45.514978 ], [ -120.908459, 45.558241 ], [ -120.913935013084, 45.648065866423501 ], [ -120.895575, 45.642945 ], [ -120.855674, 45.671545 ], [ -120.68937, 45.715847 ], [ -120.652516760194004, 45.736169730674902 ], [ -120.634968, 45.745847 ], [ -120.591166, 45.746547 ], [ -120.505863, 45.700048 ], [ -120.488546820704002, 45.699912227478499 ], [ -120.358135, 45.534239 ], [ -120.364955, 45.49725 ], [ -120.496059, 45.465149 ], [ -120.525059, 45.405249 ], [ -120.540256, 45.217049 ], [ -120.45225, 45.14545 ], [ -120.503733, 45.083477 ], [ -120.729792, 45.083731 ], [ -120.723569, 45.130911 ], [ -120.889357, 45.202305 ], [ -121.023879, 45.218291 ], [ -121.01569, 45.307148 ] ] ] } },
{ "type": "Feature", "properties": { "name": "Jefferson County RFPA area (Ashwood-Antelope", "acres": 1142646.0, "NAME": "Jefferson" }, "geometry": { "type": "Polygon", "coordinates": [ [ [ -121.84552, 44.424733 ], [ -121.793895, 44.594056 ], [ -121.799562, 44.683915 ], [ -121.819998, 44.800612 ], [ -121.775926, 44.819846 ], [ -121.752994, 44.829919 ], [ -121.725068, 44.825519 ], [ -121.08948, 44.823272 ], [ -120.371441, 44.821769 ], [ -120.404676, 44.794719 ], [ -120.386561, 44.564009 ], [ -120.827555, 44.562793 ], [ -120.826899, 44.476499 ], [ -120.988824, 44.476484 ], [ -120.988375, 44.390265 ], [ -121.107534, 44.3906 ], [ -121.674928, 44.393387 ], [ -121.843138, 44.39263 ], [ -121.84552, 44.424733 ] ] ] } },
{ "type": "Feature", "properties": { "name": "Umatilla County RFPA area (Ukiah / WC Ranches / Sixshooter", "acres": 2078024.0, "NAME": "Umatilla" }, "geometry": { "type": "Polygon", "coordinates": [ [ [ -119.432138558816007, 45.913209144233903 ], [ -119.364396, 45.921605 ], [ -119.25715, 45.939926 ], [ -119.12612, 45.932859 ], [ -119.061462, 45.958527 ], [ -118.987227539564998, 45.999800213523699 ], [ -118.987129, 45.999855 ], [ -118.67787, 46.000935 ], [ -118.36779, 46.000622 ], [ -117.996970429602996, 46.000190667172603 ], [ -117.977657306531995, 46.000168202382 ], [ -117.977613, 45.883431 ], [ -117.97298, 45.860595 ], [ -117.972948, 45.816896 ], [ -118.045003, 45.817073 ], [ -118.066383, 45.688395 ], [ -118.117194, 45.688607 ], [ -118.116461, 45.470732 ], [ -118.197955, 45.4704 ], [ -118.197876, 45.427204 ], [ -118.428539, 45.429076 ], [ -118.428329, 45.35519 ], [ -118.697766, 45.345647 ], [ -118.656102, 45.257729 ], [ -118.655992, 45.196928 ], [ -118.546632, 45.196898 ], [ -118.518687, 45.08069 ], [ -118.518689, 44.995877 ], [ -119.162966, 44.996241 ], [ -119.146424, 45.08294 ], [ -119.145144, 45.515909 ], [ -119.248214, 45.516076 ], [ -119.248547, 45.601935 ], [ -119.43464, 45.602985 ], [ -119.432138558816007, 45.913209144233903 ] ] ] } },
{ "type": "Feature", "properties": { "name": "Morrow County RFPA area (Butter Creek", "acres": 1317757.0, "NAME": "Morrow" }, "geometry": { "type": "Polygon", "coordinates": [ [ [ -119.999505153461996, 45.811684923081899 ], [ -119.965744, 45.824365 ], [ -119.868153889390996, 45.8382266026357 ], [ -119.802655, 45.84753 ], [ -119.669877, 45.856867 ], [ -119.600549, 45.919581 ], [ -119.571584, 45.925456 ], [ -119.487829, 45.906307 ], [ -119.432138558816007, 45.913209144233903 ], [ -119.43464, 45.602985 ], [ -119.248547, 45.601935 ], [ -119.248214, 45.516076 ], [ -119.145144, 45.515909 ], [ -119.146424, 45.08294 ], [ -119.162966, 44.996241 ], [ -119.643745, 44.994596 ], [ -119.672228, 44.995117 ], [ -119.791162, 44.994755 ], [ -119.790699, 45.067823 ], [ -119.759759, 45.169211 ], [ -119.883914, 45.169152 ], [ -119.882346, 45.256916 ], [ -120.006555, 45.257706 ], [ -119.999505153461996, 45.811684923081899 ] ] ] } },
{ "type": "Feature", "properties": { "name": "Wasco County RFPA area (Bakeoven-Shaniko / Lone Pine", "acres": 1528308.0, "NAME": "Wasco" }, "geometry": { "type": "Polygon", "coordinates": [ [ [ -121.804921, 45.012382 ], [ -121.740994, 45.034428 ], [ -121.716996, 45.038037 ], [ -121.72235, 45.046023 ], [ -121.687234, 45.067371 ], [ -121.65871, 45.066355 ], [ -121.651394, 45.088803 ], [ -121.665717, 45.11972 ], [ -121.685005, 45.12369 ], [ -121.693387, 45.116934 ], [ -121.70805, 45.134055 ], [ -121.712219, 45.153424 ], [ -121.731438, 45.170633 ], [ -121.748245, 45.2051 ], [ -121.698375, 45.226448 ], [ -121.696479, 45.25792 ], [ -121.481888, 45.258128 ], [ -121.440646, 45.519394 ], [ -121.440695827861006, 45.699073794772403 ], [ -121.423592, 45.69399 ], [ -121.33777, 45.704949 ], [ -121.215779, 45.671238 ], [ -121.183841, 45.606441 ], [ -121.1222, 45.616067 ], [ -121.084933, 45.647893 ], [ -120.943977, 45.656445 ], [ -120.913935013084, 45.648065866423501 ], [ -120.908459, 45.558241 ], [ -120.826385, 45.514978 ], [ -120.868569, 45.401146 ], [ -120.956471, 45.310345 ], [ -121.01569, 45.307148 ], [ -121.023879, 45.218291 ], [ -120.889357, 45.202305 ], [ -120.723569, 45.130911 ], [ -120.729792, 45.083731 ], [ -120.503733, 45.083477 ], [ -120.49516, 45.068279 ], [ -120.455204, 44.865607 ], [ -120.371441, 44.821769 ], [ -121.08948, 44.823272 ], [ -121.725068, 44.825519 ], [ -121.752994, 44.829919 ], [ -121.734223, 44.88572 ], [ -121.765322, 44.885719 ], [ -121.804921, 45.012382 ] ] ] } },
{ "type": "Feature", "properties": { "name": "Gilliam County RFPA area (Central Oregon RFPAs", "acres": 755248.0, "NAME": "Gilliam" }, "geometry": { "type": "Polygon", "coordinates": [ [ [ -120.525059, 45.405249 ], [ -120.496059, 45.465149 ], [ -120.364955, 45.49725 ], [ -120.358135, 45.534239 ], [ -120.488546820704002, 45.699912227478499 ], [ -120.40396, 45.699249 ], [ -120.282156, 45.72125 ], [ -120.210754, 45.725951 ], [ -120.141352, 45.773152 ], [ -120.07015, 45.785152 ], [ -119.999505153461996, 45.811684923081899 ], [ -120.006555, 45.257706 ], [ -119.882346, 45.256916 ], [ -119.883914, 45.169152 ], [ -119.759759, 45.169211 ], [ -119.790699, 45.067823 ], [ -120.49516, 45.068279 ], [ -120.503733, 45.083477 ], [ -120.45225, 45.14545 ], [ -120.540256, 45.217049 ], [ -120.525059, 45.405249 ] ] ] } },
{ "type": "Feature", "properties": { "name": "Union County RFPA area (North Powder", "acres": 1291274.0, "NAME": "Union" }, "geometry": { "type": "Polygon", "coordinates": [ [ [ -118.697766, 45.345647 ], [ -118.428329, 45.35519 ], [ -118.428539, 45.429076 ], [ -118.197876, 45.427204 ], [ -118.197955, 45.4704 ], [ -118.116461, 45.470732 ], [ -118.117194, 45.688607 ], [ -118.066383, 45.688395 ], [ -118.045003, 45.817073 ], [ -117.972948, 45.816896 ], [ -117.97298, 45.860595 ], [ -117.747327, 45.861072 ], [ -117.74765, 45.773625 ], [ -117.788395, 45.773515 ], [ -117.787623, 45.689567 ], [ -117.727225, 45.61699 ], [ -117.727235, 45.51478 ], [ -117.663391, 45.365749 ], [ -117.582344, 45.338096 ], [ -117.522249, 45.267731 ], [ -117.520941, 45.209768 ], [ -117.476684, 45.166539 ], [ -117.266006, 45.166539 ], [ -117.266005, 45.08057 ], [ -117.563486, 45.079446 ], [ -117.564033, 44.992866 ], [ -117.777504, 44.992161 ], [ -117.84343, 45.058477 ], [ -117.969083, 44.995831 ], [ -118.13016, 45.045125 ], [ -118.244662, 44.958396 ], [ -118.364214, 44.990763 ], [ -118.4361, 44.96242 ], [ -118.518689, 44.995877 ], [ -118.518687, 45.08069 ], [ -118.546632, 45.196898 ], [ -118.655992, 45.196928 ], [ -118.656102, 45.257729 ], [ -118.697766, 45.345647 ] ] ] } },
{ "type": "Feature", "properties": { "name": "Klamath County RFPA area (Klamath Basin (partial", "acres": 3940283.0, "NAME": "Klamath" }, "geometry": { "type": "Polygon", "coordinates": [ [ [ -122.289749096156996, 42.007764730496604 ], [ -122.28776, 42.440287 ], [ -122.284689, 42.4745 ], [ -122.28273, 42.996499 ], [ -122.282585, 43.067719 ], [ -122.093776, 43.076257 ], [ -122.03965, 43.214102 ], [ -121.974199, 43.261693 ], [ -122.010403, 43.344697 ], [ -122.132034, 43.440221 ], [ -122.131009, 43.557284 ], [ -122.002362, 43.615498 ], [ -121.332969, 43.616645 ], [ -121.332413, 43.356663 ], [ -121.349679, 42.746644 ], [ -120.883327, 42.744214 ], [ -120.879925710235995, 41.993483259984899 ], [ -121.035195, 41.993323 ], [ -121.251099, 41.99757 ], [ -121.43961, 41.99708 ], [ -121.447539998048001, 41.997190033272602 ], [ -121.675348, 42.000351 ], [ -121.846712, 42.00307 ], [ -122.101922, 42.005766 ], [ -122.289527, 42.007764 ], [ -122.289749096156996, 42.007764730496604 ] ] ] } },
{ "type": "Feature", "properties": { "name": "Malheur County RFPA area (Ironside / Vale / Jordan Valley", "acres": 6338561.0, "NAME": "Malheur" }, "geometry": { "type": "Polygon", "coordinates": [ [ [ -118.232214, 44.256129 ], [ -118.152945, 44.270684 ], [ -117.971787, 44.443849 ], [ -117.590849, 44.444573 ], [ -117.486744, 44.387246 ], [ -117.487014, 44.300317 ], [ -117.211995506953002, 44.296451095938302 ], [ -117.216974, 44.288357 ], [ -117.170342, 44.25889 ], [ -117.121037, 44.277585 ], [ -117.059352, 44.237244 ], [ -116.971958, 44.235677 ], [ -116.965498, 44.194126 ], [ -116.902752, 44.179467 ], [ -116.895931, 44.154295 ], [ -116.897854677115006, 44.1526663953914 ], [ -116.977351, 44.085364 ], [ -116.937342, 44.029376 ], [ -116.959871, 43.982925 ], [ -116.976024, 43.895548 ], [ -116.985545038490002, 43.881184852813803 ], [ -117.023577, 43.823811 ], [ -117.025663810446005, 43.680293635954001 ], [ -117.026889, 43.596033 ], [ -117.026652, 43.025128 ], [ -117.026253, 42.807447 ], [ -117.026551, 42.378557 ], [ -117.026197, 41.99989 ], [ -117.197798, 42.00038 ], [ -117.403613, 41.99929 ], [ -117.623731, 41.998467 ], [ -117.873467, 41.998335 ], [ -118.197189, 41.996995 ], [ -118.197369215928006, 41.9969940811635 ], [ -118.195311, 42.267119 ], [ -118.214698, 42.275891 ], [ -118.216832, 42.914703 ], [ -118.2321, 43.770829 ], [ -118.227645, 44.039862 ], [ -118.228843, 44.21255 ], [ -118.232214, 44.256129 ] ] ] } },
{ "type": "Feature", "properties": { "name": "Grant County RFPA area (Long Creek / Monument", "acres": 2891884.0, "NAME": "Grant" }, "geometry": { "type": "Polygon", "coordinates": [ [ [ -119.672228, 44.995117 ], [ -119.643745, 44.994596 ], [ -119.162966, 44.996241 ], [ -118.518689, 44.995877 ], [ -118.4361, 44.96242 ], [ -118.364214, 44.990763 ], [ -118.244662, 44.958396 ], [ -118.228244, 44.865178 ], [ -118.295659, 44.863043 ], [ -118.285439, 44.750975 ], [ -118.380067, 44.744227 ], [ -118.51944, 44.705886 ], [ -118.504327, 44.665272 ], [ -118.375037, 44.646102 ], [ -118.305778, 44.58881 ], [ -118.408786, 44.452648 ], [ -118.497499, 44.255248 ], [ -118.232214, 44.256129 ], [ -118.228843, 44.21255 ], [ -118.227645, 44.039862 ], [ -118.587125, 44.040266 ], [ -118.81689, 44.047828 ], [ -118.816931, 43.960733 ], [ -119.657183, 43.95892 ], [ -119.655517, 44.307045 ], [ -119.652431, 44.823299 ], [ -119.672228, 44.995117 ] ] ] } },
{ "type": "Feature", "properties": { "name": "Wheeler County RFPA area (Wheeler County", "acres": 1108925.0, "NAME": "Wheeler" }, "geometry": { "type": "Polygon", "coordinates": [ [ [ -120.49516, 45.068279 ], [ -119.790699, 45.067823 ], [ -119.791162, 44.994755 ], [ -119.672228, 44.995117 ], [ -119.652431, 44.823299 ], [ -119.655517, 44.307045 ], [ -119.899002, 44.30662 ], [ -119.899283, 44.389575 ], [ -120.020708, 44.389687 ], [ -120.021621, 44.438793 ], [ -120.386074, 44.436083 ], [ -120.386561, 44.564009 ], [ -120.404676, 44.794719 ], [ -120.371441, 44.821769 ], [ -120.455204, 44.865607 ], [ -120.49516, 45.068279 ] ] ] } },
{ "type": "Feature", "properties": { "name": "Baker County RFPA area (Pine Creek / Keating / Lookout Mountain", "acres": 1981089.0, "NAME": "Baker" }, "geometry": { "type": "Polygon", "coordinates": [ [ [ -118.51944, 44.705886 ], [ -118.380067, 44.744227 ], [ -118.285439, 44.750975 ], [ -118.295659, 44.863043 ], [ -118.228244, 44.865178 ], [ -118.244662, 44.958396 ], [ -118.13016, 45.045125 ], [ -117.969083, 44.995831 ], [ -117.84343, 45.058477 ], [ -117.777504, 44.992161 ], [ -117.564033, 44.992866 ], [ -117.563486, 45.079446 ], [ -117.266005, 45.08057 ], [ -116.783128263267002, 45.077712505009998 ], [ -116.78371, 45.076972 ], [ -116.841314, 45.030907 ], [ -116.858313, 44.978761 ], [ -116.833632, 44.928976 ], [ -116.865338, 44.870599 ], [ -116.889295186967004, 44.840529778153297 ], [ -116.9318, 44.787181 ], [ -117.013802, 44.756841 ], [ -117.062273, 44.727143 ], [ -117.094968, 44.652011 ], [ -117.14293, 44.557236 ], [ -117.167187, 44.523431 ], [ -117.225932, 44.479389 ], [ -117.215072, 44.427162 ], [ -117.243027, 44.390974 ], [ -117.216911, 44.360163 ], [ -117.192203, 44.32863 ], [ -117.211995506953002, 44.296451095938302 ], [ -117.487014, 44.300317 ], [ -117.486744, 44.387246 ], [ -117.590849, 44.444573 ], [ -117.971787, 44.443849 ], [ -118.152945, 44.270684 ], [ -118.232214, 44.256129 ], [ -118.497499, 44.255248 ], [ -118.408786, 44.452648 ], [ -118.305778, 44.58881 ], [ -118.375037, 44.646102 ], [ -118.504327, 44.665272 ], [ -118.51944, 44.705886 ] ] ] } },
{ "type": "Feature", "properties": { "name": "Harney County RFPA area (Frenchglen / Silvies / Crane / Diamond", "acres": 6551252.0, "NAME": "Harney" }, "geometry": { "type": "Polygon", "coordinates": [ [ [ -119.931595, 42.917005 ], [ -119.932611, 43.178963 ], [ -119.896969, 43.179017 ], [ -119.896581, 43.611164 ], [ -119.897434, 43.6982 ], [ -119.777528, 43.697957 ], [ -119.775402, 43.959086 ], [ -119.657183, 43.95892 ], [ -118.816931, 43.960733 ], [ -118.81689, 44.047828 ], [ -118.587125, 44.040266 ], [ -118.227645, 44.039862 ], [ -118.2321, 43.770829 ], [ -118.216832, 42.914703 ], [ -118.214698, 42.275891 ], [ -118.195311, 42.267119 ], [ -118.197369215928006, 41.9969940811635 ], [ -118.501002, 41.995446 ], [ -118.775869, 41.992692 ], [ -119.001022, 41.993793 ], [ -119.20828, 41.993177 ], [ -119.324184120439, 41.993875627793301 ], [ -119.360123119603003, 41.994092254981197 ], [ -119.365337, 42.748958 ], [ -119.943779, 42.746371 ], [ -119.931595, 42.917005 ] ] ] } },
{ "type": "Feature", "properties": { "name": "Crook County RFPA area (Post-Paulina", "acres": 1911602.0, "NAME": "Crook" }, "geometry": { "type": "Polygon", "coordinates": [ [ [ -121.107534, 44.3906 ], [ -120.988375, 44.390265 ], [ -120.988824, 44.476484 ], [ -120.826899, 44.476499 ], [ -120.827555, 44.562793 ], [ -120.386561, 44.564009 ], [ -120.386074, 44.436083 ], [ -120.021621, 44.438793 ], [ -120.020708, 44.389687 ], [ -119.899283, 44.389575 ], [ -119.899002, 44.30662 ], [ -119.655517, 44.307045 ], [ -119.657183, 43.95892 ], [ -119.775402, 43.959086 ], [ -119.777528, 43.697957 ], [ -119.897434, 43.6982 ], [ -120.257777, 43.698762 ], [ -120.258386, 43.785297 ], [ -120.378107, 43.785429 ], [ -120.37874, 43.872362 ], [ -120.747848, 43.871331 ], [ -120.748249, 43.95731 ], [ -120.986587, 43.960852 ], [ -120.987271, 44.134026 ], [ -121.102773, 44.138125 ], [ -121.102781, 44.169238 ], [ -121.108537, 44.218519 ], [ -121.107534, 44.3906 ] ] ] } },
{ "type": "Feature", "properties": { "name": "Lake County RFPA area (Warner Valley / Silver Creek / Paisley", "acres": 5343666.0, "NAME": "Lake" }, "geometry": { "type": "Polygon", "coordinates": [ [ [ -121.332413, 43.356663 ], [ -121.332969, 43.616645 ], [ -120.377752, 43.615946 ], [ -120.35095, 43.6116 ], [ -119.896581, 43.611164 ], [ -119.896969, 43.179017 ], [ -119.932611, 43.178963 ], [ -119.931595, 42.917005 ], [ -119.943779, 42.746371 ], [ -119.365337, 42.748958 ], [ -119.360123119603003, 41.994092254981197 ], [ -119.72573, 41.996296 ], [ -119.999168, 41.99454 ], [ -120.181563, 41.994588 ], [ -120.501069, 41.993785 ], [ -120.692219, 41.993677 ], [ -120.879925710235995, 41.993483259984899 ], [ -120.883327, 42.744214 ], [ -121.349679, 42.746644 ], [ -121.332413, 43.356663 ] ] ] } }
]
}
